STARLINK-1865           
1 46741U 20074C   21296.70329324  .00001612  00000-0  12713-3 0  9992
2 46741  53.0542 295.2638 0001473  71.6658 288.4491 15.06397619 55829
STARLINK-1872           
1 46742U 20074D   21296.74014621 -.00000413  00000-0 -88129-5 0  9994
2 46742  53.0551 295.0824 0001412  79.1981 280.9167 15.06392274 55829
STARLINK-1892           
1 46743U 20074E   21296.69591280  .00001224  00000-0  10111-3 0  9993
2 46743  53.0539 295.2922 0005628  17.8915 342.2271 15.06401685 55821
STARLINK-1894           
1 46744U 20074F   21296.71435301  .00001553  00000-0  12311-3 0  9997
2 46744  53.0534 295.2079 0001381  71.2586 288.8553 15.06396224 55820
STARLINK-1898           
1 46745U 20074G   21296.73647123  .00001929  00000-0  14839-3 0  9991
2 46745  53.0550 295.0979 0001568  79.2500 280.8666 15.06392062 55820
STARLINK-1905           
1 46746U 20074H   21296.72909243 -.00000775  00000-0 -33154-4 0  9997
2 46746  53.0551 295.1345 0001479  77.5341 282.5813 15.06396042 55820
STARLINK-1908           
1 46747U 20074J   21296.97607066  .00001272  00000-0  10428-3 0  9992
2 46747  53.0539 294.0269 0001433  71.3429 288.7716 15.06388380 55881
STARLINK-1910           
1 46748U 20074K   21296.71804494  .00001445  00000-0  11588-3 0  9999
2 46748  53.0549 295.1950 0001946  45.7511 314.3638 15.06394271 55827
STARLINK-1911           
1 46749U 20074L   21296.72540496 -.00000573  00000-0 -19579-4 0  9992
2 46749  53.0550 295.1574 0001483  67.2876 292.8269 15.06390328 55820
STARLINK-1920           
1 46751U 20074N   21296.72172034 -.00000817  00000-0 -35935-4 0  9999
2 46751  53.0543 295.1818 0001556  67.8764 292.2390 15.06395906 55825
STARLINK-1921           
1 46752U 20074P   21296.73277366 -.00000272  00000-0  61576-6 0  9991
2 46752  53.0536 295.1366 0001224  33.0319 327.0746 15.06398588 55820
STARLINK-1922           
1 46753U 20074Q   21296.69960812 -.00000227  00000-0  36820-5 0  9995
2 46753  53.0543 295.2707 0001428  74.1741 285.9405 15.06395805 55823
STARLINK-1923           
1 46754U 20074R   21296.70697687 -.00000655  00000-0 -25066-4 0  9990
2 46754  53.0539 295.2441 0001486  72.7431 287.3720 15.06387940 55825
STARLINK-1924           
1 46755U 20074S   21296.71204036 -.00000033  00000-0  16661-4 0  9994
2 46755  53.0538 300.2267 0001392  81.8552 278.2594 15.06393482 55757
STARLINK-1925           
1 46756U 20074T   21296.70372741 -.00000573  00000-0 -19582-4 0  9998
2 46756  53.0538 300.2469 0001353  77.9206 282.1934 15.06389357 55759
STARLINK-1926           
1 46757U 20074U   21296.73323427  .00001435  00000-0  11526-3 0  9994
2 46757  53.0550 300.1350 0001301  65.8732 294.2393 15.06391251 55754
STARLINK-1928           
1 46758U 20074V   21296.49459567  .00003216  00000-0  23481-3 0  9995
2 46758  53.0545 301.2043 0001557  75.2894 284.8268 15.06379502 55725
STARLINK-1833           
1 46759U 20074W   21296.48996848 -.00000388  00000-0 -71560-5 0  9995
2 46759  53.0554 311.2053 0001195  90.6217 269.4909 15.06396926 55579
STARLINK-1896           
1 46760U 20074X   21296.36833564  .00001527  00000-0  12142-3 0  9992
2 46760  53.0533 311.7713 0001209  87.4079 272.7049 15.06395101 55567
STARLINK-1901           
1 46762U 20074Z   21296.82893521  .00822476  00000-0  33179-2 0  9990
2 46762  53.0539 285.3196 0001666  75.3480 284.7727 15.83722782 55981
STARLINK-1902           
1 46763U 20074AA  21296.91266281  .00032895  00000-0  22512-2 0  9995
2 46763  53.0555 309.3368 0001526  74.8161 285.2997 15.05830655 55655
STARLINK-1903           
1 46764U 20074AB  21297.02444480  .00001127  00000-0  94586-4 0  9994
2 46764  53.0536 308.8152 0001255  84.0135 276.0997 15.06388478 55675
STARLINK-1906           
1 46765U 20074AC  21296.74798441 -.00000624  00000-0 -22982-4 0  9996
2 46765  53.0569 310.0568 0001311  81.9014 278.2123 15.06391131 55612
STARLINK-1916           
1 46766U 20074AD  21296.74061837  .00001456  00000-0  11664-3 0  9995
2 46766  53.0535 310.1029 0001284  75.8696 284.2436 15.06396437 55625
STARLINK-1917           
1 46767U 20074AE  21296.43837068 -.00000053  00000-0  15365-4 0  9995
2 46767  53.0535 311.4477 0001375  77.8832 282.2311 15.06393820 55579
STARLINK-1918           
1 46768U 20074AF  21296.50839977  .00000900  00000-0  79334-4 0  9991
2 46768  53.0557 311.1315 0001227  81.1044 279.0084 15.06395672 55580
STARLINK-1919           
1 46769U 20074AG  21296.46046811  .00001370  00000-0  11086-3 0  9995
2 46769  53.0540 311.3623 0001205  70.4838 289.6281 15.06398610 55575
STARLINK-1932           
1 46770U 20074AH  21296.52956752 -.00000631  00000-0 -23452-4 0  9990
2 46770  53.0547 311.0391 0001385  76.3182 283.7961 15.06388091 55582
STARLINK-1936           
1 46772U 20074AK  21296.78115610 -.00000812  00000-0 -35663-4 0  9998
2 46772  53.0538 309.9165 0001240  77.8016 282.3112 15.06388589 55643
STARLINK-1939           
1 46774U 20074AM  21296.56818914  .00004037  00000-0  27785-3 0  9999
2 46774  53.0532 309.7905 0001313  83.6823 276.4316 15.07981980 55613
STARLINK-1945           
1 46775U 20074AN  21296.91295868  .00215871  00000-0  10125-1 0  9994
2 46775  53.0572 308.9263 0001044 117.8239 242.2861 15.18236623 55321
STARLINK-1946           
1 46776U 20074AP  21296.53051438  .00001230  00000-0  10146-3 0  9993
2 46776  53.0547 311.0334 0001332  81.2327 278.8813 15.06397360 55583
STARLINK-1798           
1 46779U 20074AS  21296.67840951  .00001242  00000-0  10225-3 0  9998
2 46779  53.0547 285.3650 0001581  73.6701 286.4462 15.06399575 55672
STARLINK-1832           
1 46780U 20074AT  21296.80004764 -.00000764  00000-0 -32395-4 0  9992
2 46780  53.0553 284.8215 0001478  71.2491 288.8659 15.06396704 55975
STARLINK-1834           
1 46781U 20074AU  21296.48581598 -.00000718  00000-0 -29335-4 0  9991
2 46781  53.0547 296.2401 0001383  80.5784 279.5362 15.06391331 55795
STARLINK-1835           
1 46782U 20074AV  21296.98803065  .00001614  00000-0  12721-3 0  9997
2 46782  53.0523 283.9896 0001681  83.1251 276.9929 15.06403552 55722
STARLINK-1851           
1 46783U 20074AW  21296.67104444  .00001750  00000-0  13635-3 0  9995
2 46783  53.0564 285.3987 0001245  70.8534 289.2590 15.06396840 55955
STARLINK-1882           
1 46784U 20074AX  21296.94011959  .00001649  00000-0  12957-3 0  9997
2 46784  53.0544 284.1831 0001497  71.4548 288.6604 15.06391208 55660
STARLINK-1883           
1 46785U 20074AY  21296.39457904 -.00000889  00000-0 -40732-4 0  9991
2 46785  53.0559 286.6522 0003966 236.2239 123.8373 15.06389917 55917
STARLINK-1893           
1 46786U 20074AZ  21296.63970689  .00001194  00000-0  99166-4 0  9992
2 46786  53.0527 265.5351 0006325  27.3971 332.7350 15.06400049 56235
STARLINK-1899           
1 46787U 20074BA  21296.63232512 -.00000226  00000-0  38475-5 0  9992
2 46787  53.0520 265.5721 0005936 348.4110  11.6741 15.06398552 56231
STARLINK-1929           
1 46788U 20074BB  21296.62497203 -.00000450  00000-0 -11118-4 0  9996
2 46788  53.0565 265.6100 0007468  30.3635 329.7785 15.06395601 56237
STARLINK-1930           
1 46789U 20074BC  21296.69865470  .00001152  00000-0  96196-4 0  9996
2 46789  53.0539 295.2794 0001612  76.7637 283.3531 15.06401896 55820
STARLINK-1931           
1 46790U 20074BD  21296.34576883  .00001409  00000-0  11349-3 0  9998
2 46790  53.0551 296.8552 0001599  73.3163 286.8001 15.06389086 55765
STARLINK-1933           
1 46791U 20074BE  21296.69223436 -.00000529  00000-0 -16630-4 0  9993
2 46791  53.0533 295.3169 0001457  71.5540 288.5607 15.06391080 55821
STARLINK-1934           
1 46792U 20074BF  21296.38721919 -.00000623  00000-0 -22932-4 0  9996
2 46792  53.0537 286.6814 0001506  82.4500 277.6660 15.06390115 55914
STARLINK-1941           
1 46793U 20074BG  21296.48212636  .00001529  00000-0  12153-3 0  9996
2 46793  53.0564 296.2463 0001453  73.3568 286.7581 15.06402730 55781
STARLINK-1942           
1 46794U 20074BH  21296.68856661  .00001571  00000-0  12437-3 0  9993
2 46794  53.0542 295.3333 0001171  76.0234 284.0885 15.06389360 55827
STARLINK-1943           
1 46795U 20074BJ  21296.11671959  .00087352  00000-0  11640-2 0  9992
2 46795  53.0520 246.4509 0004725 307.5110  52.5471 15.57406408 56468
STARLINK-1944           
1 46796U 20074BK  21296.66365766  .00001302  00000-0  10630-3 0  9999
2 46796  53.0552 285.4334 0001259  77.8287 282.2843 15.06397412 55950
STARLINK-1947           
1 46797U 20074BL  21296.59922564  .00000414  00000-0  18975-4 0  9991
2 46797  53.0573 258.6592 0001096  96.2464 263.8666 15.42162696 56338
STARLINK-1948           
1 46798U 20074BM  21297.02718017  .00001435  00000-0  11519-3 0  9997
2 46798  53.0547 308.8120 0001174  86.9293 273.1830 15.06398374 55406
COSMOS 2547 [GLONASS-K] 
1 46805U 20075A   21296.94158353  .00000017  00000-0  00000-0 0  9993
2 46805  64.7087 249.4648 0008345 250.7571 344.6881  2.13102787  7733
YAOGAN-30 U             
1 46807U 20076A   21297.11209156  .00000471  00000-0  50609-4 0  9992
2 46807  34.9958 235.6192 0000594 189.6863 170.3840 14.90023931 54084
YAOGAN-30 V             
1 46808U 20076B   21297.15615552  .00000447  00000-0  48180-4 0  9992
2 46808  34.9964 235.0503 0002048  40.1754 319.9094 14.90018216 54091
YAOGAN-30 W             
1 46809U 20076C   21297.13386020  .00000474  00000-0  50992-4 0  9990
2 46809  34.9991 234.9072 0006649 140.9624 219.1574 14.90016804 54081
TIANQI-6                
1 46810U 20076D   21297.10469853  .00000356  00000-0  37445-4 0  9992
2 46810  35.0040 230.1673 0014095 192.2605 167.7749 14.91559253 54137
FLOCK 4V-25             
1 46812U 20061BP  21296.78677785  .00001771  00000-0  93248-4 0  9991
2 46812  97.4236   7.8712 0004543 193.5551 166.5559 15.16895225 54970
FLOCK 4E'-1             
1 46813U 20077A   21297.01169860  .00003948  00000-0  19925-3 0  9993
2 46813  97.4546 358.2649 0013193 153.2548 206.9369 15.17620156 54571
